[{"OBJECT_NAME":"SCS-01 D","OBJECT_ID":"2025-100D","EPOCH":"2026-03-09T18:08:45.040704","MEAN_MOTION":15.31902149,"ECCENTRICITY":0.00063457,"INCLINATION":97.373,"RA_OF_ASC_NODE":145.4097,"ARG_OF_PERICENTER":266.2302,"MEAN_ANOMALY":93.8214,"EPHEMERIS_TYPE":0,"CLASSIFICATION_TYPE":"U","NORAD_CAT_ID":63985,"ELEMENT_SET_NO":999,"REV_AT_EPOCH":4562,"BSTAR":0.0010528181,"MEAN_MOTION_DOT":0.00032471,"MEAN_MOTION_DDOT":0},{"OBJECT_NAME":"STARLINK-34516","OBJECT_ID":"2025-137M","EPOCH":"2026-03-09T22:01:06.852288","MEAN_MOTION":15.30227626,"ECCENTRICITY":9.217e-5,"INCLINATION":53.1592,"RA_OF_ASC_NODE":333.9073,"ARG_OF_PERICENTER":67.6959,"MEAN_ANOMALY":292.414,"EPHEMERIS_TYPE":0,"CLASSIFICATION_TYPE":"U","NORAD_CAT_ID":64605,"ELEMENT_SET_NO":999,"REV_AT_EPOCH":4087,"BSTAR":0.00082382534,"MEAN_MOTION_DOT":0.0002414,"MEAN_MOTION_DDOT":0}]
